[{"OBJECT_NAME":"RCM-1","OBJECT_ID":"2019-033A","EPOCH":"2026-03-09T01:05:01.694400","MEAN_MOTION":14.92590685,"ECCENTRICITY":0.00015282,"INCLINATION":97.7599,"RA_OF_ASC_NODE":76.9091,"ARG_OF_PERICENTER":92.1165,"MEAN_ANOMALY":268.023,"EPHEMERIS_TYPE":0,"CLASSIFICATION_TYPE":"U","NORAD_CAT_ID":44322,"ELEMENT_SET_NO":999,"REV_AT_EPOCH":36714,"BSTAR":1.4271181e-5,"MEAN_MOTION_DOT":9.1e-7,"MEAN_MOTION_DDOT":0},{"OBJECT_NAME":"ATLAS 28E R\/B","OBJECT_ID":"1990-031D","EPOCH":"2026-03-09T13:40:28.718976","MEAN_MOTION":14.80148972,"ECCENTRICITY":0.0058493,"INCLINATION":89.8623,"RA_OF_ASC_NODE":258.1521,"ARG_OF_PERICENTER":172.6422,"MEAN_ANOMALY":187.5674,"EPHEMERIS_TYPE":0,"CLASSIFICATION_TYPE":"U","NORAD_CAT_ID":20563,"ELEMENT_SET_NO":999,"REV_AT_EPOCH":35581,"BSTAR":0.00023423,"MEAN_MOTION_DOT":1.847e-5,"MEAN_MOTION_DDOT":0}]
